CS1                     
1 49261U 21088B   26068.75173904  .00015722  00000+0  51176-3 0  9998
2 49261  97.3882 132.1684 0014129  78.0335 282.2490 15.31848439245182
STARLINK-32299          
1 61702U 24195R   26068.55667478 -.00000249  00000+0  37123-5 0  9993
2 61702  53.1605 155.7910 0001160 111.9829 248.1295 15.30187677 77230
